#aV2012  3 16  0  0  0.00000000     288 DD+AD WGS84 FIT  NGA
## 1679 432000.00000000   300.00000000 56002 0.0000000000000
+   31     1  2  3  4  5  6  7  8  9 10 11 12 13 14 15 16 17
+         18 19 20 21 22 23 25 26 27 28 29 30 31 32  0  0  0
+          0  0  0  0  0  0  0  0  0  0  0  0  0  0  0  0  0
+          0  0  0  0  0  0  0  0  0  0  0  0  0  0  0  0  0
+          0  0  0  0  0  0  0  0  0  0  0  0  0  0  0  0  0
++         2  2  2  2  2  2  2  2  2  2  2  2  2  2  2  2  2
++         2  2  2  2  2  2  2  2  2  2  2  2  2  2  2  0  0
++         0  0  0  0  0  0  0  0  0  0  0  0  0  0  0  0  0
++         0  0  0  0  0  0  0  0  0  0  0  0  0  0  0  0  0
++         0  0  0  0  0  0  0  0  0  0  0  0  0  0  0  0  0
%c cc cc ccc ccc cccc cccc cccc cccc ccccc ccccc ccccc ccccc
%c cc cc ccc ccc cccc cccc cccc cccc ccccc ccccc ccccc ccccc
%f  0.0000000  0.000000000  0.00000000000  0.000000000000000
%f  0.0000000  0.000000000  0.00000000000  0.000000000000000
%i    0    0    0    0      0      0      0      0         0
%i    0    0    0    0      0      0      0      0         0
/*      NGA, ST. LOUIS,MO.                                  
/*   EPHEMERIS COMPUTED FROM  1 DAYS OF DATA
/*   EPOCHA SMOOTHER  
/* CCCCCCCCCCCCCCCCCCCCCCCCCCCCCCCCCCCCCCCCCCCCCCCCCCCCCCCCC
*  2012  3 16  9 30  0.00000000                                                 
P  1  22329.435487  12656.688168   6861.122974    233.372831                    
V  1   4922.838079   7681.960415 -30117.368688      0.070544                    
P  2  -9396.013307 -20956.183470  13871.793954    382.998307                    
V  2  14786.417773   9254.476652  23678.679041      0.014734                    
P  3   3987.390066  15839.265703 -21378.726773     23.076027                    
V  3 -23656.297110  11363.034312   4378.198708      0.052278                    
P  4   2179.407603 -17221.128325  19770.463218    124.405271                    
V  4  20582.760680  15658.988230  11551.048364      0.114510                    
P  5  -3148.578009 -24127.603472 -10521.666049   -294.317955                    
V  5   5212.181638 -12645.308776  27624.811183     -0.042718                    
P  6  -1325.627822  16756.113033 -20374.012563     31.944507                    
V  6 -24753.503286   9020.431418   9254.547545      0.000515                    
P  7  19751.995856   1362.585969 -17802.132802     64.791440                    
V  7  16063.469288  15826.053419  18772.741431      0.030038                    
P  8  11459.587252  -8783.623134 -22248.916976      0.833353                    
V  8  19719.815103  20275.132407   1596.061407      0.000799                    
P  9 -21193.361628 -15718.798732   2321.932929    145.087371                    
V  9  -1422.134886  -3945.841927 -32121.412172      0.024917                    
P 10   9652.465998 -23594.869807   6425.677939    -32.410016                    
V 10   1676.961541   9125.745432  30229.399485     -0.012571                    
P 11  23133.742375  13209.243382  -2608.760820   -242.126642                    
V 11  -4624.098682   3035.884886 -29634.846871     -0.037281                    
P 12 -12040.330049 -11140.985458  20933.845301     58.129240                    
V 12   6069.630058 -25777.624800 -10046.402916      0.021311                    
P 13  25997.029505  -5291.180070   1890.035343    219.181477                    
V 13  -2012.644287   2500.105805  32137.999891     -0.022121                    
P 14 -16510.863905  14854.327412  14634.367167    197.224759                    
V 14 -18080.114435   3304.981262 -24172.100011      0.011835                    
P 15 -19003.753994  -6367.367582 -17541.724288    -91.977813                    
V 15  20171.429163  -9491.308817 -18206.061641      0.003096                    
P 16   1522.224219  24259.631704 -10305.786516   -227.592651                    
V 16  -5103.997401  12356.922729  28597.794220     -0.015230                    
P 17  18394.793547 -14687.784353  12234.887489    142.292531                    
V 17  15374.917081  -2280.820088 -26455.716116     -0.024955                    
P 18 -15786.548430  10726.878626 -17974.521641    186.398416                    
V 18   2394.198919 -23754.352652 -16333.205699      0.018104                    
P 19  16164.797444   9570.043219 -18960.821954   -246.005000                    
V 19 -22831.519740   7069.025567 -15551.715592     -0.038186                    
P 20  14818.835420   6461.466111  20919.672213     63.368890                    
V 20  -4410.279123  26693.616782  -5011.538625     -0.001207                    
P 21 -18000.165641   3068.993571 -19004.005343   -210.974952                    
V 21 -17990.832925 -17506.599571  13285.937510     -0.024986                    
P 22 -10355.042591  23176.778760  -7431.238622    143.086363                    
V 22  -1743.187466 -10292.882122 -29108.700795      0.002434                    
P 23  23693.126504   1120.973151  12343.109262    223.800281                    
V 23 -14027.481569   6894.678234  26000.915966     -0.035068                    
P 25 -15508.099680   4082.350470  21138.983874     32.267982                    
V 25   3992.472951 -26598.603770   8108.369174      0.002648                    
P 26  -5126.024661 -14140.991398 -22521.020113   -162.945561                    
V 26  26181.322250  -6703.232434  -1424.378063     -0.568789                    
P 27 -19400.254280 -18105.367487  -3214.357611    367.349301                    
V 27   4870.276420   1575.994400 -31577.397440      0.040535                    
P 28  11713.936742 -21443.443968  -9574.178291    123.129712                    
V 28   -708.938839  13203.375748 -29006.862443      0.040042                    
P 29 -25757.700998   4439.957496   4657.459681    294.229415                    
V 29   4792.744339  -4293.618371  31098.399719      0.035710                    
P 30  -2052.765241  26475.493876   -264.505995    -85.892260                    
V 30  -2875.508869   -330.085220  31715.807871     -0.171933                    
P 31  -1262.175663  17120.253929  20392.558470    220.099214                    
V 31 -19675.889792 -16203.120999  12741.180652      0.043728                    
P 32   9802.777842  15901.673736  19272.044506   -420.911354                    
V 32  -7537.915323  22690.933044 -14594.465899     -0.048396                    
EOF
